{
  "type": "FeatureCollection",
  "features": [
    {
      "type": "Feature",
      "properties": {
        "norad_id": 36036,
        "name": "SMOS",
        "group": "resource",
        "lat": -8.762361435821786,
        "lon": -1.0742799702751207,
        "alt_km": 763.5790830247706,
        "timestamp": "2025-12-21T07:34:34.197340+00:00",
        "meta_object_name": "SMOS",
        "meta_object_id": "2009-059A",
        "meta_epoch": "2025-12-20T12:21:18.783072",
        "meta_mean_motion": 14.39747686,
        "meta_eccentricity": 0.0001079,
        "meta_inclination": 98.438,
        "meta_ra_of_asc_node": 179.4481,
        "meta_arg_of_pericenter": 83.7466,
        "meta_mean_anomaly": 276.3845,
        "meta_ephemeris_type": 0,
        "meta_classification_type": "U",
        "meta_norad_cat_id": 36036,
        "meta_element_set_no": 999,
        "meta_rev_at_epoch": 84774,
        "meta_bstar": 0.00010402639,
        "meta_mean_motion_dot": 2.82e-06,
        "meta_mean_motion_ddot": 0,
        "tle_line1": "1 36036U 09059A   25354.51480073  .00000282  00000+0  10403-3 0  9990",
        "tle_line2": "2 36036  98.4380 179.4481 0001079  83.7466 276.3845 14.39747686847747"
      },
      "geometry": {
        "type": "Point",
        "coordinates": [
          -1.0742799702751207,
          -8.762361435821786
        ]
      }
    },
    {
      "type": "Feature",
      "properties": {
        "norad_id": 36110,
        "name": "YAOGAN-7",
        "group": "resource",
        "lat": 73.34212767039196,
        "lon": 85.19153160176766,
        "alt_km": 643.2326480540014,
        "timestamp": "2025-12-21T07:34:34.197349+00:00",
        "meta_object_name": "YAOGAN-7",
        "meta_object_id": "2009-069A",
        "meta_epoch": "2025-12-20T22:58:38.136576",
        "meta_mean_motion": 14.77743234,
        "meta_eccentricity": 0.00233544,
        "meta_inclination": 98.0296,
        "meta_ra_of_asc_node": 236.6848,
        "meta_arg_of_pericenter": 253.2592,
        "meta_mean_anomaly": 106.6056,
        "meta_ephemeris_type": 0,
        "meta_classification_type": "U",
        "meta_norad_cat_id": 36110,
        "meta_element_set_no": 999,
        "meta_rev_at_epoch": 86330,
        "meta_bstar": 6.8720368e-05,
        "meta_mean_motion_dot": 4.41e-06,
        "meta_mean_motion_ddot": 0,
        "tle_line1": "1 36110U 09069A   25354.95738584  .00000441  00000+0  68720-4 0  9998",
        "tle_line2": "2 36110  98.0296 236.6848 0023354 253.2592 106.6056 14.77743234863305"
      },
      "geometry": {
        "type": "Point",
        "coordinates": [
          85.19153160176766,
          73.34212767039196
        ]
      }
    },
    {
      "type": "Feature",
      "properties": {
        "norad_id": 36605,
        "name": "TANDEM-X",
        "group": "resource",
        "lat": -6.791334208158873,
        "lon": 179.6784790771721,
        "alt_km": 512.7743118522712,
        "timestamp": "2025-12-21T07:34:34.197358+00:00",
        "meta_object_name": "TANDEM-X",
        "meta_object_id": "2010-030A",
        "meta_epoch": "2025-12-20T11:47:12.909696",
        "meta_mean_motion": 15.19154059,
        "meta_eccentricity": 0.00018,
        "meta_inclination": 97.4444,
        "meta_ra_of_asc_node": 359.7582,
        "meta_arg_of_pericenter": 78.1402,
        "meta_mean_anomaly": 282.0034,
        "meta_ephemeris_type": 0,
        "meta_classification_type": "U",
        "meta_norad_cat_id": 36605,
        "meta_element_set_no": 999,
        "meta_rev_at_epoch": 85951,
        "meta_bstar": 3.1882e-05,
        "meta_mean_motion_dot": 6.03e-06,
        "meta_mean_motion_ddot": 0,
        "tle_line1": "1 36605U 10030A   25354.49112164  .00000603  00000+0  31882-4 0  9995",
        "tle_line2": "2 36605  97.4444 359.7582 0001800  78.1402 282.0034 15.19154059859511"
      },
      "geometry": {
        "type": "Point",
        "coordinates": [
          179.6784790771721,
          -6.791334208158873
        ]
      }
    },
    {
      "type": "Feature",
      "properties": {
        "norad_id": 36795,
        "name": "CARTOSAT-2B",
        "group": "resource",
        "lat": 61.55085010874644,
        "lon": 29.44241034075085,
        "alt_km": 618.5502125106914,
        "timestamp": "2025-12-21T07:34:34.197368+00:00",
        "meta_object_name": "CARTOSAT-2B",
        "meta_object_id": "2010-035A",
        "meta_epoch": "2025-12-20T23:10:29.847936",
        "meta_mean_motion": 14.78734648,
        "meta_eccentricity": 0.00127845,
        "meta_inclination": 97.7846,
        "meta_ra_of_asc_node": 43.7287,
        "meta_arg_of_pericenter": 52.4096,
        "meta_mean_anomaly": 307.8274,
        "meta_ephemeris_type": 0,
        "meta_classification_type": "U",
        "meta_norad_cat_id": 36795,
        "meta_element_set_no": 999,
        "meta_rev_at_epoch": 83351,
        "meta_bstar": 5.7584769e-05,
        "meta_mean_motion_dot": 3.73e-06,
        "meta_mean_motion_ddot": 0,
        "tle_line1": "1 36795U 10035A   25354.96562324  .00000373  00000+0  57585-4 0  9991",
        "tle_line2": "2 36795  97.7846  43.7287 0012784  52.4096 307.8274 14.78734648833515"
      },
      "geometry": {
        "type": "Point",
        "coordinates": [
          29.44241034075085,
          61.55085010874644
        ]
      }
    },
    {
      "type": "Feature",
      "properties": {
        "norad_id": 36834,
        "name": "YAOGAN-10",
        "group": "resource",
        "lat": -35.206958984263615,
        "lon": 20.704263888645325,
        "alt_km": 621.416888461813,
        "timestamp": "2025-12-21T07:34:34.197377+00:00",
        "meta_object_name": "YAOGAN-10",
        "meta_object_id": "2010-038A",
        "meta_epoch": "2025-12-20T23:45:25.358976",
        "meta_mean_motion": 14.84634618,
        "meta_eccentricity": 0.00013982,
        "meta_inclination": 97.9132,
        "meta_ra_of_asc_node": 14.7487,
        "meta_arg_of_pericenter": 78.9964,
        "meta_mean_anomaly": 305.3093,
        "meta_ephemeris_type": 0,
        "meta_classification_type": "U",
        "meta_norad_cat_id": 36834,
        "meta_element_set_no": 999,
        "meta_rev_at_epoch": 83076,
        "meta_bstar": 9.6302983e-05,
        "meta_mean_motion_dot": 7.6e-06,
        "meta_mean_motion_ddot": 0,
        "tle_line1": "1 36834U 10038A   25354.98987684  .00000760  00000+0  96303-4 0  9991",
        "tle_line2": "2 36834  97.9132  14.7487 0001398  78.9964 305.3093 14.84634618830764"
      },
      "geometry": {
        "type": "Point",
        "coordinates": [
          20.704263888645325,
          -35.206958984263615
        ]
      }
    },
    {
      "type": "Feature",
      "properties": {
        "norad_id": 37216,
        "name": "COSMO-SKYMED 4",
        "group": "resource",
        "lat": 8.304929942008128,
        "lon": -2.3323495216986956,
        "alt_km": 624.4042454365726,
        "timestamp": "2025-12-21T07:34:34.197386+00:00",
        "meta_object_name": "COSMO-SKYMED 4",
        "meta_object_id": "2010-060A",
        "meta_epoch": "2025-12-20T22:42:13.504896",
        "meta_mean_motion": 14.82156657,
        "meta_eccentricity": 0.00014483,
        "meta_inclination": 97.8799,
        "meta_ra_of_asc_node": 176.1453,
        "meta_arg_of_pericenter": 82.5077,
        "meta_mean_anomaly": 277.6301,
        "meta_ephemeris_type": 0,
        "meta_classification_type": "U",
        "meta_norad_cat_id": 37216,
        "meta_element_set_no": 999,
        "meta_rev_at_epoch": 81816,
        "meta_bstar": 0.00015088798,
        "meta_mean_motion_dot": 1.149e-05,
        "meta_mean_motion_ddot": 0,
        "tle_line1": "1 37216U 10060A   25354.94598964  .00001149  00000+0  15089-3 0  9999",
        "tle_line2": "2 37216  97.8799 176.1453 0001448  82.5077 277.6301 14.82156657818168"
      },
      "geometry": {
        "type": "Point",
        "coordinates": [
          -2.3323495216986956,
          8.304929942008128
        ]
      }
    },
    {
      "type": "Feature",
      "properties": {
        "norad_id": 37387,
        "name": "RESOURCESAT-2",
        "group": "resource",
        "lat": 68.38659767373419,
        "lon": 35.85053524073371,
        "alt_km": 810.5093801786943,
        "timestamp": "2025-12-21T07:34:34.197395+00:00",
        "meta_object_name": "RESOURCESAT-2",
        "meta_object_id": "2011-015A",
        "meta_epoch": "2025-12-20T22:48:06.059232",
        "meta_mean_motion": 14.21600223,
        "meta_eccentricity": 0.00060435,
        "meta_inclination": 98.7866,
        "meta_ra_of_asc_node": 58.4647,
        "meta_arg_of_pericenter": 20.5322,
        "meta_mean_anomaly": 339.6097,
        "meta_ephemeris_type": 0,
        "meta_classification_type": "U",
        "meta_norad_cat_id": 37387,
        "meta_element_set_no": 999,
        "meta_rev_at_epoch": 76085,
        "meta_bstar": 6.1552163e-05,
        "meta_mean_motion_dot": 9e-07,
        "meta_mean_motion_ddot": 0,
        "tle_line1": "1 37387U 11015A   25354.95007013  .00000090  00000+0  61552-4 0  9991",
        "tle_line2": "2 37387  98.7866  58.4647 0006043  20.5322 339.6097 14.21600223760859"
      },
      "geometry": {
        "type": "Point",
        "coordinates": [
          35.85053524073371,
          68.38659767373419
        ]
      }
    }
  ]
}